{"type": "FeatureCollection", "features": [ {"type": "Feature", "properties": {"norad_id": 30081, "name": "FENGYUN 1C DEB", "group": "fengyun-1c-debris", "lat": -28.808644687497157, "lon": -14.227557503020755, "alt_km": 851.9753309392963, "timestamp": "2025-12-10T11:33:53.659070+00:00", "meta": {"OBJECT_NAME": "FENGYUN 1C DEB", "OBJECT_ID": "1999-025QJ", "EPOCH": "2025-12-09T20:48:13.258368", "MEAN_MOTION": 13.98271678, "ECCENTRICITY": 0.0076021, "INCLINATION": 98.9225, "RA_OF_ASC_NODE": 340.2181, "ARG_OF_PERICENTER": 347.1614, "MEAN_ANOMALY": 129.6345, "EPHEMERIS_TYPE": 0, "CLASSIFICATION_TYPE": "U", "NORAD_CAT_ID": 30081, "ELEMENT_SET_NO": 999, "REV_AT_EPOCH": 96314, "BSTAR": 0.00076189, "MEAN_MOTION_DOT": 1.071e-05, "MEAN_MOTION_DDOT": 0}, "tle": {"line1": "1 30081U 99025QJ  25343.86682012  .00001071  00000+0  76189-3 0  9999", "line2": "2 30081  98.9225 340.2181 0076021 347.1614 129.6345 13.98271678963145"}}, "geometry": {"type": "Point", "coordinates": [-14.227557503020755, -28.808644687497157]}}, {"type": "Feature", "properties": {"norad_id": 30082, "name": "FENGYUN 1C DEB", "group": "fengyun-1c-debris", "lat": -12.07745246967583, "lon": -86.22856531718739, "alt_km": 573.4055732055058, "timestamp": "2025-12-10T11:33:53.659081+00:00", "meta": {"OBJECT_NAME": "FENGYUN 1C DEB", "OBJECT_ID": "1999-025QK", "EPOCH": "2025-12-10T00:31:22.285344", "MEAN_MOTION": 15.14897354, "ECCENTRICITY": 0.0069621, "INCLINATION": 98.8178, "RA_OF_ASC_NODE": 271.335, "ARG_OF_PERICENTER": 175.5396, "MEAN_ANOMALY": 184.6468, "EPHEMERIS_TYPE": 0, "CLASSIFICATION_TYPE": "U", "NORAD_CAT_ID": 30082, "ELEMENT_SET_NO": 999, "REV_AT_EPOCH": 1252, "BSTAR": 0.0017973, "MEAN_MOTION_DOT": 0.0003562, "MEAN_MOTION_DDOT": 0}, "tle": {"line1": "1 30082U 99025QK  25344.02178571  .00035620  00000+0  17973-2 0  9991", "line2": "2 30082  98.8178 271.3350 0069621 175.5396 184.6468 15.14897354 12521"}}, "geometry": {"type": "Point", "coordinates": [-86.22856531718739, -12.07745246967583]}}, {"type": "Feature", "properties": {"norad_id": 30086, "name": "FENGYUN 1C DEB", "group": "fengyun-1c-debris", "lat": 71.86462505491967, "lon": -10.407638649755079, "alt_km": 855.5671699251052, "timestamp": "2025-12-10T11:33:53.659091+00:00", "meta": {"OBJECT_NAME": "FENGYUN 1C DEB", "OBJECT_ID": "1999-025QP", "EPOCH": "2025-12-10T01:05:28.355712", "MEAN_MOTION": 14.03822129, "ECCENTRICITY": 0.0061761, "INCLINATION": 98.9101, "RA_OF_ASC_NODE": 17.782, "ARG_OF_PERICENTER": 141.9595, "MEAN_ANOMALY": 248.5956, "EPHEMERIS_TYPE": 0, "CLASSIFICATION_TYPE": "U", "NORAD_CAT_ID": 30086, "ELEMENT_SET_NO": 999, "REV_AT_EPOCH": 96658, "BSTAR": 0.0005968, "MEAN_MOTION_DOT": 9.13e-06, "MEAN_MOTION_DDOT": 0}, "tle": {"line1": "1 30086U 99025QP  25344.04546708  .00000913  00000+0  59680-3 0  9997", "line2": "2 30086  98.9101  17.7820 0061761 141.9595 248.5956 14.03822129966582"}}, "geometry": {"type": "Point", "coordinates": [-10.407638649755079, 71.86462505491967]}}, {"type": "Feature", "properties": {"norad_id": 30087, "name": "FENGYUN 1C DEB", "group": "fengyun-1c-debris", "lat": 76.97451055326157, "lon": -22.799244546928605, "alt_km": 653.378272788218, "timestamp": "2025-12-10T11:33:53.659100+00:00", "meta": {"OBJECT_NAME": "FENGYUN 1C DEB", "OBJECT_ID": "1999-025QQ", "EPOCH": "2025-12-10T01:24:42.467040", "MEAN_MOTION": 14.3569376, "ECCENTRICITY": 0.0230227, "INCLINATION": 98.3809, "RA_OF_ASC_NODE": 16.3771, "ARG_OF_PERICENTER": 129.3401, "MEAN_ANOMALY": 287.3651, "EPHEMERIS_TYPE": 0, "CLASSIFICATION_TYPE": "U", "NORAD_CAT_ID": 30087, "ELEMENT_SET_NO": 999, "REV_AT_EPOCH": 98657, "BSTAR": 0.00035985, "MEAN_MOTION_DOT": 1.357e-05, "MEAN_MOTION_DDOT": 0}, "tle": {"line1": "1 30087U 99025QQ  25344.05882485  .00001357  00000+0  35985-3 0  9999", "line2": "2 30087  98.3809  16.3771 0230227 129.3401 287.3651 14.35693760986579"}}, "geometry": {"type": "Point", "coordinates": [-22.799244546928605, 76.97451055326157]}}, {"type": "Feature", "properties": {"norad_id": 30088, "name": "FENGYUN 1C DEB", "group": "fengyun-1c-debris", "lat": -19.40777701925394, "lon": -28.203119236136477, "alt_km": 764.8228416763886, "timestamp": "2025-12-10T11:33:53.659110+00:00", "meta": {"OBJECT_NAME": "FENGYUN 1C DEB", "OBJECT_ID": "1999-025QR", "EPOCH": "2025-12-09T22:24:32.132736", "MEAN_MOTION": 14.35898599, "ECCENTRICITY": 0.0200741, "INCLINATION": 98.3541, "RA_OF_ASC_NODE": 328.2978, "ARG_OF_PERICENTER": 255.9154, "MEAN_ANOMALY": 130.3211, "EPHEMERIS_TYPE": 0, "CLASSIFICATION_TYPE": "U", "NORAD_CAT_ID": 30088, "ELEMENT_SET_NO": 999, "REV_AT_EPOCH": 98632, "BSTAR": 0.00057196, "MEAN_MOTION_DOT": 2.036e-05, "MEAN_MOTION_DDOT": 0}, "tle": {"line1": "1 30088U 99025QR  25343.93370524  .00002036  00000+0  57196-3 0  9995", "line2": "2 30088  98.3541 328.2978 0200741 255.9154 130.3211 14.35898599986325"}}, "geometry": {"type": "Point", "coordinates": [-28.203119236136477, -19.40777701925394]}}, {"type": "Feature", "properties": {"norad_id": 30089, "name": "FENGYUN 1C DEB", "group": "fengyun-1c-debris", "lat": 54.106195675942864, "lon": -122.68604003385815, "alt_km": 835.2967491390855, "timestamp": "2025-12-10T11:33:53.659120+00:00", "meta": {"OBJECT_NAME": "FENGYUN 1C DEB", "OBJECT_ID": "1999-025QS", "EPOCH": "2025-12-09T12:37:49.122336", "MEAN_MOTION": 14.30299278, "ECCENTRICITY": 0.00731754, "INCLINATION": 98.9031, "RA_OF_ASC_NODE": 248.8455, "ARG_OF_PERICENTER": 219.4524, "MEAN_ANOMALY": 318.2408, "EPHEMERIS_TYPE": 0, "CLASSIFICATION_TYPE": "U", "NORAD_CAT_ID": 30089, "ELEMENT_SET_NO": 999, "REV_AT_EPOCH": 98433, "BSTAR": 0.00043233228, "MEAN_MOTION_DOT": 1.108e-05, "MEAN_MOTION_DDOT": 0}, "tle": {"line1": "1 30089U 99025QS  25343.52626299  .00001108  00000+0  43233-3 0  9990", "line2": "2 30089  98.9031 248.8455 0073175 219.4524 318.2408 14.30299278984336"}}, "geometry": {"type": "Point", "coordinates": [-122.68604003385815, 54.106195675942864]}}, {"type": "Feature", "properties": {"norad_id": 30090, "name": "FENGYUN 1C DEB", "group": "fengyun-1c-debris", "lat": -39.85667689927378, "lon": 165.34962684140473, "alt_km": 840.2936023184275, "timestamp": "2025-12-10T11:33:53.659130+00:00", "meta": {"OBJECT_NAME": "FENGYUN 1C DEB", "OBJECT_ID": "1999-025QT", "EPOCH": "2025-12-09T23:03:49.262112", "MEAN_MOTION": 14.29021227, "ECCENTRICITY": 0.0058187, "INCLINATION": 99.4091, "RA_OF_ASC_NODE": 156.8308, "ARG_OF_PERICENTER": 119.7349, "MEAN_ANOMALY": 41.9035, "EPHEMERIS_TYPE": 0, "CLASSIFICATION_TYPE": "U", "NORAD_CAT_ID": 30090, "ELEMENT_SET_NO": 999, "REV_AT_EPOCH": 98230, "BSTAR": 0.00047727, "MEAN_MOTION_DOT": 1.18e-05, "MEAN_MOTION_DDOT": 0}, "tle": {"line1": "1 30090U 99025QT  25343.96098683  .00001180  00000+0  47727-3 0  9992", "line2": "2 30090  99.4091 156.8308 0058187 119.7349  41.9035 14.29021227982304"}}, "geometry": {"type": "Point", "coordinates": [165.34962684140473, -39.85667689927378]}}, {"type": "Feature", "properties": {"norad_id": 30092, "name": "FENGYUN 1C DEB", "group": "fengyun-1c-debris", "lat": -16.45768371993872, "lon": -19.013958374501442, "alt_km": 736.8832262399928, "timestamp": "2025-12-10T11:33:53.659141+00:00", "meta": {"OBJECT_NAME": "FENGYUN 1C DEB", "OBJECT_ID": "1999-025QV", "EPOCH": "2025-12-10T01:13:01.774272", "MEAN_MOTION": 14.39122981, "ECCENTRICITY": 0.0082594, "INCLINATION": 98.9227, "RA_OF_ASC_NODE": 163.1977, "ARG_OF_PERICENTER": 258.4293, "MEAN_ANOMALY": 226.4607, "EPHEMERIS_TYPE": 0, "CLASSIFICATION_TYPE": "U", "NORAD_CAT_ID": 30092, "ELEMENT_SET_NO": 999, "REV_AT_EPOCH": 98710, "BSTAR": 0.00082713, "MEAN_MOTION_DOT": 2.614e-05, "MEAN_MOTION_DDOT": 0}, "tle": {"line1": "1 30092U 99025QV  25344.05071498  .00002614  00000+0  82713-3 0  9997", "line2": "2 30092  98.9227 163.1977 0082594 258.4293 226.4607 14.39122981987100"}}, "geometry": {"type": "Point", "coordinates": [-19.013958374501442, -16.45768371993872]}}, {"type": "Feature", "properties": {"norad_id": 30093, "name": "FENGYUN 1C DEB", "group": "fengyun-1c-debris", "lat": 14.079036290611352, "lon": -143.28450242776847, "alt_km": 703.8776779410991, "timestamp": "2025-12-10T11:33:53.659151+00:00", "meta": {"OBJECT_NAME": "FENGYUN 1C DEB", "OBJECT_ID": "1999-025QW", "EPOCH": "2025-12-10T03:53:03.278400", "MEAN_MOTION": 14.4366399, "ECCENTRICITY": 0.0070341, "INCLINATION": 98.8672, "RA_OF_ASC_NODE": 218.6261, "ARG_OF_PERICENTER": 345.2598, "MEAN_ANOMALY": 166.4121, "EPHEMERIS_TYPE": 0, "CLASSIFICATION_TYPE": "U", "NORAD_CAT_ID": 30093, "ELEMENT_SET_NO": 999, "REV_AT_EPOCH": 98766, "BSTAR": 0.0012831, "MEAN_MOTION_DOT": 4.44e-05, "MEAN_MOTION_DDOT": 0}, "tle": {"line1": "1 30093U 99025QW  25344.16184350  .00004440  00000+0  12831-2 0  9994", "line2": "2 30093  98.8672 218.6261 0070341 345.2598 166.4121 14.43663990987666"}}, "geometry": {"type": "Point", "coordinates": [-143.28450242776847, 14.079036290611352]}}, {"type": "Feature", "properties": {"norad_id": 30095, "name": "FENGYUN 1C DEB", "group": "fengyun-1c-debris", "lat": -1.5799592897422463, "lon": 85.00875846568553, "alt_km": 734.8751301134153, "timestamp": "2025-12-10T11:33:53.659161+00:00", "meta": {"OBJECT_NAME": "FENGYUN 1C DEB", "OBJECT_ID": "1999-025QY", "EPOCH": "2025-12-09T12:03:11.794176", "MEAN_MOTION": 14.81710196, "ECCENTRICITY": 0.0166752, "INCLINATION": 99.219, "RA_OF_ASC_NODE": 264.1385, "ARG_OF_PERICENTER": 342.5746, "MEAN_ANOMALY": 16.9781, "EPHEMERIS_TYPE": 0, "CLASSIFICATION_TYPE": "U", "NORAD_CAT_ID": 30095, "ELEMENT_SET_NO": 999, "REV_AT_EPOCH": 99287, "BSTAR": 0.0031063, "MEAN_MOTION_DOT": 0.00031216, "MEAN_MOTION_DDOT": 0}, "tle": {"line1": "1 30095U 99025QY  25343.50221984  .00031216  00000+0  31063-2 0  9997", "line2": "2 30095  99.2190 264.1385 0166752 342.5746  16.9781 14.81710196992871"}}, "geometry": {"type": "Point", "coordinates": [85.00875846568553, -1.5799592897422463]}}]}